OBJECT_NAME,OBJECT_ID,EPOCH,MEAN_MOTION,ECCENTRICITY,INCLINATION,RA_OF_ASC_NODE,ARG_OF_PERICENTER,MEAN_ANOMALY,EPHEMERIS_TYPE,CLASSIFICATION_TYPE,NORAD_CAT_ID,ELEMENT_SET_NO,REV_AT_EPOCH,BSTAR,MEAN_MOTION_DOT,MEAN_MOTION_DDOT
PERSEUS-M1,2014-033AF,2026-06-14T08:38:27.964032,14.95623960,.00105128,97.9644,109.4456,312.2620,47.7708,0,U,40039,999,65021,.10597261E-3,.1117E-4,0
POLYITAN-1,2014-033AJ,2026-06-14T13:44:02.825088,15.33175066,.00084457,98.0937,191.5859,148.6714,211.5031,0,U,40042,999,65319,.53331657E-3,.17042E-3,0
TIGRISAT,2014-033AK,2026-06-14T08:29:04.088256,14.85153048,.00506765,97.7824,315.4300,84.2807,276.4183,0,U,40043,999,64520,.24722153E-3,.211E-4,0
AEROCUBE 6A,2014-033AM,2026-06-14T08:26:40.386912,14.98083113,.00391415,97.7231,332.3304,27.6491,332.6801,0,U,40045,999,64619,.49752878E-3,.5921E-4,0
AEROCUBE 6B,2014-033AN,2026-06-14T10:10:05.516544,14.99547273,.00385227,97.7233,332.1856,18.8590,341.4050,0,U,40046,999,64634,.43796994E-3,.5406E-4,0
CANX-4,2014-034C,2026-06-14T14:02:21.655104,14.81260440,.00133433,98.3125,40.8025,25.1162,335.0695,0,U,40055,999,64414,.1154038E-3,.843E-5,0
CANX-5,2014-034D,2026-06-14T14:00:08.898048,14.81277632,.00133544,98.3127,40.8443,25.2580,334.9282,0,U,40056,999,63495,.11601912E-3,.848E-5,0
UKUBE-1,2014-037F,2026-06-14T14:09:28.451232,15.13518446,.00025433,98.4229,168.5889,134.4924,225.6513,0,U,40074,999,64816,.42184841E-3,.7481E-4,0
BRITE-PL2 (HEWELIUSZ),2014-049B,2026-06-14T13:28:18.844608,14.94585543,.00152052,97.9095,277.5411,116.2621,244.0164,0,U,40119,999,64105,.13390095E-3,.1392E-4,0
AEROCUBE 5C,2015-058B,2026-06-14T11:43:43.545216,14.91442860,.01306373,64.7679,270.9847,64.3247,297.1289,0,U,40965,999,36525,.20254727E-3,.2211E-4,0
AEROCUBE 7,2015-058C,2026-06-14T13:25:49.240416,14.95710972,.01203646,64.7629,253.0460,62.7337,298.5977,0,U,40966,999,36556,.25364689E-3,.3093E-4,0
FOX-1A (AO-85),2015-058D,2026-06-14T12:50:59.953632,14.90958458,.01302803,64.7761,287.2242,57.6209,303.7433,0,U,40967,999,11317,.20925083E-3,.2258E-4,0
SINOD-D 1,2015-058E,2026-06-14T12:54:31.592160,14.95891444,.01188703,64.7761,267.2089,54.1346,307.0737,0,U,40968,999,11626,.2590241E-3,.3168E-4,0
SNAP-3 ALICE,2015-058G,2026-06-14T06:55:27.503328,15.59474399,.0028838,64.7497,113.9459,14.5147,345.6819,0,U,40970,999,11643,.13736E-2,.113024E-2,0
LMRST-SAT,2015-058H,2026-06-14T11:45:39.792096,14.90579336,.01319317,64.7766,283.6979,59.6772,301.7313,0,U,40971,999,11315,.19616406E-3,.2091E-4,0
SNAP-3 EDDIE,2015-058J,2026-06-14T03:39:58.967712,15.60680536,.0028488,64.7423,105.1621,18.6640,341.5544,0,U,40972,999,11855,.15035182E-2,.129815E-2,0
PROPCUBE 3,2015-058K,2026-06-14T12:46:26.189184,14.94244940,.01239101,64.7690,260.8306,60.9641,300.3821,0,U,40973,999,11440,.23069713E-3,.2707E-4,0
BISONSAT,2015-058L,2026-06-14T09:28:28.553952,15.16135124,.0078766,64.7578,182.6726,48.4099,312.3740,0,U,40974,999,11519,.53594298E-3,.11042E-3,0
SNAP-3 JIMI,2015-058M,2026-06-14T12:38:03.333408,15.02278476,.01060086,64.7643,228.1910,56.4556,304.6631,0,U,40975,999,11382,.29165566E-3,.4173E-4,0
PROPCUBE 1 (FLORA),2015-058N,2026-06-14T13:50:35.894112,14.89211577,.01306165,64.7756,303.3259,61.9436,299.4811,0,U,40976,999,11587,.21349413E-3,.2199E-4,0
SINOD-D 3,2015-058P,2026-06-14T13:31:26.694624,14.94001720,.01191168,64.7737,284.0115,59.1708,302.1062,0,U,40977,999,11436,.25924399E-3,.3009E-4,0
HORYU-4,2016-012D,2026-06-14T11:54:51.309216,15.93820636,.00047162,30.9847,98.7619,253.7574,106.2569,0,U,41340,999,57038,.10359447E-2,.399139E-2,.5627425E-4
RAVAN,2016-067B,2026-06-14T14:20:39.443136,15.54459756,.00047424,97.9893,54.8715,39.9901,320.1700,0,U,41849,999,52729,.68742525E-3,.45289E-3,0
CELTEE 1,2016-067C,2026-06-14T13:45:33.298848,15.19660318,.00007871,98.0676,31.9624,121.6639,238.4671,0,U,41850,999,52548,.25199868E-3,.5297E-4,0
OPTICUBE 04,2016-067D,2026-06-14T13:27:05.572224,15.09649217,.00168023,98.0698,17.7073,123.7241,236.5590,0,U,41851,999,52477,.11782484E-3,.183E-4,0
AEROCUBE 8D,2016-067E,2026-06-14T14:17:35.801664,15.24366214,.00045453,98.0686,35.5701,129.5805,230.5832,0,U,41852,999,52567,.29429842E-3,.7128E-4,0
AEROCUBE 8C,2016-067F,2026-06-14T13:19:40.749600,15.24614101,.00067054,98.0558,32.7581,76.2740,283.9242,0,U,41853,999,52566,.28922945E-3,.7058E-4,0
CORVUS BC2,2017-042X,2026-06-14T09:42:53.341056,15.06278341,.00141862,97.4051,326.8627,119.3255,240.9392,0,U,42846,999,48664,.27160184E-3,.3937E-4,0
CORVUS BC1,2017-042Y,2026-06-14T12:46:52.912704,15.06449976,.00132006,97.4088,327.7978,97.3564,262.9164,0,U,42847,999,48669,.2606971E-3,.3793E-4,0
MAKERSAT 0,2017-073D,2026-06-13T21:56:29.924736,15.31998671,.0105274,97.4636,47.4083,284.8512,74.1088,0,U,43016,999,46596,.51447E-3,.18871E-3,0
